[{"OBJECT_NAME":"STARLINK-2628","OBJECT_ID":"2021-038G","EPOCH":"2026-03-09T22:51:58.687776","MEAN_MOTION":15.30188023,"ECCENTRICITY":0.00013012,"INCLINATION":53.1587,"RA_OF_ASC_NODE":356.9227,"ARG_OF_PERICENTER":123.2716,"MEAN_ANOMALY":236.8409,"EPHEMERIS_TYPE":0,"CLASSIFICATION_TYPE":"U","NORAD_CAT_ID":48359,"ELEMENT_SET_NO":999,"REV_AT_EPOCH":26711,"BSTAR":0.00021848604,"MEAN_MOTION_DOT":6.115e-5,"MEAN_MOTION_DDOT":0},{"OBJECT_NAME":"TIANMU-1 19","OBJECT_ID":"2023-208A","EPOCH":"2026-03-09T22:13:36.801696","MEAN_MOTION":15.2984143,"ECCENTRICITY":0.00039292,"INCLINATION":97.4383,"RA_OF_ASC_NODE":184.9132,"ARG_OF_PERICENTER":316.2611,"MEAN_ANOMALY":43.8317,"EPHEMERIS_TYPE":0,"CLASSIFICATION_TYPE":"U","NORAD_CAT_ID":58660,"ELEMENT_SET_NO":999,"REV_AT_EPOCH":12214,"BSTAR":0.00040995676,"MEAN_MOTION_DOT":0.00011779,"MEAN_MOTION_DDOT":0}]
